[
  {
    "OBJECT_NAME": "FENGYUN 3E",
    "OBJECT_ID": "2021-062A",
    "EPOCH": "2025-06-07T20:59:52.842624",
    "MEAN_MOTION": 14.19866682,
    "ECCENTRICITY": 0.0002776,
    "INCLINATION": 98.7414,
    "RA_OF_ASC_NODE": 161.6243,
    "ARG_OF_PERICENTER": 88.9956,
    "MEAN_ANOMALY": 271.1538,
    "EPHEMERIS_TYPE": 0,
    "CLASSIFICATION_TYPE": "U",
    "NORAD_CAT_ID": 49008,
    "ELEMENT_SET_NO": 999,
    "REV_AT_EPOCH": 20346,
    "BSTAR": 2.5166e-05,
    "MEAN_MOTION_DOT": 1e-07,
    "MEAN_MOTION_DDOT": 0
  },
  {
    "OBJECT_NAME": "GOES 18",
    "OBJECT_ID": "2022-021A",
    "EPOCH": "2025-06-07T18:26:15.478080",
    "MEAN_MOTION": 1.00272518,
    "ECCENTRICITY": 4.08e-05,
    "INCLINATION": 0.0128,
    "RA_OF_ASC_NODE": 66.8686,
    "ARG_OF_PERICENTER": 55.5734,
    "MEAN_ANOMALY": 273.5282,
    "EPHEMERIS_TYPE": 0,
    "CLASSIFICATION_TYPE": "U",
    "NORAD_CAT_ID": 51850,
    "ELEMENT_SET_NO": 999,
    "REV_AT_EPOCH": 1205,
    "BSTAR": 0,
    "MEAN_MOTION_DOT": 1.14e-06,
    "MEAN_MOTION_DDOT": 0
  },
  {
    "OBJECT_NAME": "NOAA 21 (JPSS-2)",
    "OBJECT_ID": "2022-150A",
    "EPOCH": "2025-06-07T13:11:16.931328",
    "MEAN_MOTION": 14.19537496,
    "ECCENTRICITY": 0.0001888,
    "INCLINATION": 98.7272,
    "RA_OF_ASC_NODE": 97.452,
    "ARG_OF_PERICENTER": 142.4636,
    "MEAN_ANOMALY": 217.6672,
    "EPHEMERIS_TYPE": 0,
    "CLASSIFICATION_TYPE": "U",
    "NORAD_CAT_ID": 54234,
    "ELEMENT_SET_NO": 999,
    "REV_AT_EPOCH": 13339,
    "BSTAR": 4.9981e-05,
    "MEAN_MOTION_DOT": 6.2e-07,
    "MEAN_MOTION_DDOT": 0
  },
  {
    "OBJECT_NAME": "METEOSAT-12 (MTG-I1)",
    "OBJECT_ID": "2022-170C",
    "EPOCH": "2025-06-07T13:56:49.106688",
    "MEAN_MOTION": 1.00272446,
    "ECCENTRICITY": 0.000124,
    "INCLINATION": 0.6522,
    "RA_OF_ASC_NODE": 33.0999,
    "ARG_OF_PERICENTER": 50.6496,
    "MEAN_ANOMALY": 21.3432,
    "EPHEMERIS_TYPE": 0,
    "CLASSIFICATION_TYPE": "U",
    "NORAD_CAT_ID": 54743,
    "ELEMENT_SET_NO": 999,
    "REV_AT_EPOCH": 922,
    "BSTAR": 0,
    "MEAN_MOTION_DOT": 1e-07,
    "MEAN_MOTION_DDOT": 0
  },
  {
    "OBJECT_NAME": "TIANMU-1 03",
    "OBJECT_ID": "2023-039A",
    "EPOCH": "2025-06-07T20:54:25.913664",
    "MEAN_MOTION": 15.35239041,
    "ECCENTRICITY": 0.0003942,
    "INCLINATION": 97.4997,
    "RA_OF_ASC_NODE": 317.3851,
    "ARG_OF_PERICENTER": 26.9964,
    "MEAN_ANOMALY": 333.1483,
    "EPHEMERIS_TYPE": 0,
    "CLASSIFICATION_TYPE": "U",
    "NORAD_CAT_ID": 55973,
    "ELEMENT_SET_NO": 999,
    "REV_AT_EPOCH": 12319,
    "BSTAR": 0.00025185,
    "MEAN_MOTION_DOT": 8.536e-05,
    "MEAN_MOTION_DDOT": 0
  },
  {
    "OBJECT_NAME": "TIANMU-1 04",
    "OBJECT_ID": "2023-039B",
    "EPOCH": "2025-06-07T19:39:05.373216",
    "MEAN_MOTION": 15.35472102,
    "ECCENTRICITY": 0.0004626,
    "INCLINATION": 97.4924,
    "RA_OF_ASC_NODE": 316.6222,
    "ARG_OF_PERICENTER": 20.1325,
    "MEAN_ANOMALY": 340.01,
    "EPHEMERIS_TYPE": 0,
    "CLASSIFICATION_TYPE": "U",
    "NORAD_CAT_ID": 55974,
    "ELEMENT_SET_NO": 999,
    "REV_AT_EPOCH": 12318,
    "BSTAR": 0.00025503,
    "MEAN_MOTION_DOT": 8.711e-05,
    "MEAN_MOTION_DDOT": 0
  },
  {
    "OBJECT_NAME": "TIANMU-1 05",
    "OBJECT_ID": "2023-039C",
    "EPOCH": "2025-06-07T20:10:48.599328",
    "MEAN_MOTION": 15.35214416,
    "ECCENTRICITY": 0.0004295,
    "INCLINATION": 97.4971,
    "RA_OF_ASC_NODE": 317.1065,
    "ARG_OF_PERICENTER": 48.161,
    "MEAN_ANOMALY": 311.9999,
    "EPHEMERIS_TYPE": 0,
    "CLASSIFICATION_TYPE": "U",
    "NORAD_CAT_ID": 55975,
    "ELEMENT_SET_NO": 999,
    "REV_AT_EPOCH": 12317,
    "BSTAR": 0.0002527,
    "MEAN_MOTION_DOT": 8.559e-05,
    "MEAN_MOTION_DDOT": 0
  },
  {
    "OBJECT_NAME": "TIANMU-1 06",
    "OBJECT_ID": "2023-039D",
    "EPOCH": "2025-06-07T21:28:19.669440",
    "MEAN_MOTION": 15.35554337,
    "ECCENTRICITY": 0.0004479,
    "INCLINATION": 97.4985,
    "RA_OF_ASC_NODE": 317.4859,
    "ARG_OF_PERICENTER": 40.8334,
    "MEAN_ANOMALY": 319.3244,
    "EPHEMERIS_TYPE": 0,
    "CLASSIFICATION_TYPE": "U",
    "NORAD_CAT_ID": 55976,
    "ELEMENT_SET_NO": 999,
    "REV_AT_EPOCH": 12319,
    "BSTAR": 0.00025008,
    "MEAN_MOTION_DOT": 8.562e-05,
    "MEAN_MOTION_DDOT": 0
  },
  {
    "OBJECT_NAME": "METEOR-M2 3",
    "OBJECT_ID": "2023-091A",
    "EPOCH": "2025-06-07T21:01:17.476608",
    "MEAN_MOTION": 14.24000357,
    "ECCENTRICITY": 0.0004248,
    "INCLINATION": 98.6611,
    "RA_OF_ASC_NODE": 215.3909,
    "ARG_OF_PERICENTER": 162.3789,
    "MEAN_ANOMALY": 197.7538,
    "EPHEMERIS_TYPE": 0,
    "CLASSIFICATION_TYPE": "U",
    "NORAD_CAT_ID": 57166,
    "ELEMENT_SET_NO": 999,
    "REV_AT_EPOCH": 10124,
    "BSTAR": 2.2501e-05,
    "MEAN_MOTION_DOT": 8e-08,
    "MEAN_MOTION_DDOT": 0
  },
  {
    "OBJECT_NAME": "TIANMU-1 07",
    "OBJECT_ID": "2023-101A",
    "EPOCH": "2025-06-07T20:03:00.796896",
    "MEAN_MOTION": 15.25091059,
    "ECCENTRICITY": 0.0005053,
    "INCLINATION": 97.3113,
    "RA_OF_ASC_NODE": 212.9542,
    "ARG_OF_PERICENTER": 43.7098,
    "MEAN_ANOMALY": 316.454,
    "EPHEMERIS_TYPE": 0,
    "CLASSIFICATION_TYPE": "U",
    "NORAD_CAT_ID": 57399,
    "ELEMENT_SET_NO": 999,
    "REV_AT_EPOCH": 10449,
    "BSTAR": 0.00020671,
    "MEAN_MOTION_DOT": 5.103e-05,
    "MEAN_MOTION_DDOT": 0
  },
  {
    "OBJECT_NAME": "TIANMU-1 08",
    "OBJECT_ID": "2023-101B",
    "EPOCH": "2025-06-07T20:48:51.834240",
    "MEAN_MOTION": 15.25095375,
    "ECCENTRICITY": 0.0007111,
    "INCLINATION": 97.3102,
    "RA_OF_ASC_NODE": 212.8133,
    "ARG_OF_PERICENTER": 41.0062,
    "MEAN_ANOMALY": 319.171,
    "EPHEMERIS_TYPE": 0,
    "CLASSIFICATION_TYPE": "U",
    "NORAD_CAT_ID": 57400,
    "ELEMENT_SET_NO": 999,
    "REV_AT_EPOCH": 10449,
    "BSTAR": 0.00019932,
    "MEAN_MOTION_DOT": 4.92e-05,
    "MEAN_MOTION_DDOT": 0
  },
  {
    "OBJECT_NAME": "TIANMU-1 09",
    "OBJECT_ID": "2023-101C",
    "EPOCH": "2025-06-07T20:25:05.162016",
    "MEAN_MOTION": 15.25029086,
    "ECCENTRICITY": 0.0006294,
    "INCLINATION": 97.3057,
    "RA_OF_ASC_NODE": 212.4278,
    "ARG_OF_PERICENTER": 42.7393,
    "MEAN_ANOMALY": 317.4334,
    "EPHEMERIS_TYPE": 0,
    "CLASSIFICATION_TYPE": "U",
    "NORAD_CAT_ID": 57401,
    "ELEMENT_SET_NO": 999,
    "REV_AT_EPOCH": 10449,
    "BSTAR": 0.00020487,
    "MEAN_MOTION_DOT": 5.048e-05,
    "MEAN_MOTION_DDOT": 0
  },
  {
    "OBJECT_NAME": "TIANMU-1 10",
    "OBJECT_ID": "2023-101D",
    "EPOCH": "2025-06-07T21:12:02.488032",
    "MEAN_MOTION": 15.25013366,
    "ECCENTRICITY": 0.0008096,
    "INCLINATION": 97.3138,
    "RA_OF_ASC_NODE": 213.1118,
    "ARG_OF_PERICENTER": 38.8647,
    "MEAN_ANOMALY": 321.3172,
    "EPHEMERIS_TYPE": 0,
    "CLASSIFICATION_TYPE": "U",
    "NORAD_CAT_ID": 57402,
    "ELEMENT_SET_NO": 999,
    "REV_AT_EPOCH": 10449,
    "BSTAR": 0.0002165,
    "MEAN_MOTION_DOT": 5.398e-05,
    "MEAN_MOTION_DDOT": 5.8684e-09
  },
  {
    "OBJECT_NAME": "FENGYUN 3F",
    "OBJECT_ID": "2023-111A",
    "EPOCH": "2025-06-07T20:49:39.814752",
    "MEAN_MOTION": 14.20045128,
    "ECCENTRICITY": 0.0001844,
    "INCLINATION": 98.7269,
    "RA_OF_ASC_NODE": 229.9516,
    "ARG_OF_PERICENTER": 116.2029,
    "MEAN_ANOMALY": 243.9337,
    "EPHEMERIS_TYPE": 0,
    "CLASSIFICATION_TYPE": "U",
    "NORAD_CAT_ID": 57490,
    "ELEMENT_SET_NO": 999,
    "REV_AT_EPOCH": 9574,
    "BSTAR": 5.2274e-05,
    "MEAN_MOTION_DOT": 6.7e-07,
    "MEAN_MOTION_DDOT": 0
  }
]