49008,FENGYUN 3E,2021,101.42,2450.0,+,98.74,Active,1,LEO,PRC,China,Government,Earth Observation,Long March,1 49008U 21062A   25158.87491716  .00000010  00000+0  25166-4 0  9990,2 49008  98.7414 161.6243 0002776  88.9956 271.1538 14.19866682203469,14.19866682,0.0002776,LEO
51850,GOES 18,2022,1436.07,5209.0,+,0.03,Active,1,GSO,USA,USA,Government,Earth Observation,Atlas,1 51850U 22021A   25158.76823470  .00000114  00000+0  00000+0 0  9998,2 51850   0.0128  66.8686 0000408  55.5734 273.5282  1.00272518 12056,1.00272518,4.08e-05,GEO
54234,NOAA 21 (JPSS-2),2022,101.44,-1.0,+,98.73,Active,0,LEO,USA,USA,Unknown,Unknown,Unknown,1 54234U 22150A   25158.54950152  .00000062  00000+0  49981-4 0  9992,2 54234  98.7272  97.4520 0001888 142.4636 217.6672 14.19537496133392,14.19537496,0.0001888,LEO
54743,METEOSAT-12 (MTG-I1),2022,1436.09,-1.0,+,0.65,Active,0,GSO,French Guiana,EUMETSAT,Unknown,Unknown,Unknown,1 54743U 22170C   25158.58112392  .00000010  00000+0  00000+0 0  9996,2 54743   0.6522  33.0999 0001240  50.6496  21.3432  1.00272446  9224,1.00272446,0.000124,GEO
55973,TIANMU-1 03,2023,93.8,50.0,+,97.5,Active,1,LEO,PRC,China,Commercial,Meteorological,Kuaizhou,1 55973U 23039A   25158.87113326  .00008536  00000+0  25185-3 0  9993,2 55973  97.4997 317.3851 0003942  26.9964 333.1483 15.35239041123192,15.35239041,0.0003942,LEO
55974,TIANMU-1 04,2023,93.78,50.0,+,97.49,Active,1,LEO,PRC,China,Commercial,Meteorological,Kuaizhou,1 55974U 23039B   25158.81881219  .00008711  00000+0  25503-3 0  9990,2 55974  97.4924 316.6222 0004626  20.1325 340.0100 15.35472102123183,15.35472102,0.0004626,LEO
55975,TIANMU-1 05,2023,93.8,50.0,+,97.5,Active,1,LEO,PRC,China,Commercial,Meteorological,Kuaizhou,1 55975U 23039C   25158.84084027  .00008559  00000+0  25270-3 0  9997,2 55975  97.4971 317.1065 0004295  48.1610 311.9999 15.35214416123170,15.35214416,0.0004295,LEO
55976,TIANMU-1 06,2023,93.78,50.0,+,97.5,Active,1,LEO,PRC,China,Commercial,Meteorological,Kuaizhou,1 55976U 23039D   25158.89467210  .00008562  00000+0  25008-3 0  9995,2 55976  97.4985 317.4859 0004479  40.8334 319.3244 15.35554337123192,15.35554337,0.0004479,LEO
57166,METEOR-M2 3,2023,101.12,-1.0,+,98.66,Active,0,LEO,Russia,Russia/USSR,Unknown,Unknown,Unknown,1 57166U 23091A   25158.87589672  .00000008  00000+0  22501-4 0  9994,2 57166  98.6611 215.3909 0004248 162.3789 197.7538 14.24000357101245,14.24000357,0.0004248,LEO
57399,TIANMU-1 07,2023,94.42,-1.0,+,97.31,Active,0,LEO,PRC,China,Unknown,Unknown,Unknown,1 57399U 23101A   25158.83542589  .00005103  00000+0  20671-3 0  9992,2 57399  97.3113 212.9542 0005053  43.7098 316.4540 15.25091059104496,15.25091059,0.0005053,LEO
57400,TIANMU-1 08,2023,94.42,-1.0,+,97.31,Active,0,LEO,PRC,China,Unknown,Unknown,Unknown,1 57400U 23101B   25158.86726660  .00004920  00000+0  19932-3 0  9996,2 57400  97.3102 212.8133 0007111  41.0062 319.1710 15.25095375104495,15.25095375,0.0007111,LEO
57401,TIANMU-1 09,2023,94.42,-1.0,+,97.31,Active,0,LEO,PRC,China,Unknown,Unknown,Unknown,1 57401U 23101C   25158.85075419  .00005048  00000+0  20487-3 0  9994,2 57401  97.3057 212.4278 0006294  42.7393 317.4334 15.25029086104496,15.25029086,0.0006294,LEO
57402,TIANMU-1 10,2023,94.43,-1.0,+,97.31,Active,0,LEO,PRC,China,Unknown,Unknown,Unknown,1 57402U 23101D   25158.88336213  .00005398  58684-8  21650-3 0  9991,2 57402  97.3138 213.1118 0008096  38.8647 321.3172 15.25013366104496,15.25013366,0.0008096,LEO
57490,FENGYUN 3F,2023,101.41,-1.0,+,98.73,Active,0,LEO,PRC,China,Unknown,Unknown,Unknown,1 57490U 23111A   25158.86782193  .00000067  00000+0  52274-4 0  9994,2 57490  98.7269 229.9516 0001844 116.2029 243.9337 14.20045128 95743,14.20045128,0.0001844,LEO
